{
  "type": "Feature",
  "properties": {
    "name": "Australia coarse land mask (generous ~1° buffer; prunes open ocean, keeps coastal waters)"
  },
  "geometry": {
    "type": "MultiPolygon",
    "coordinates": [
      [[
        [113.0, -21.5], [112.0, -25.0], [113.5, -35.5], [118.0, -36.0],
        [124.0, -34.8], [129.0, -33.0], [132.0, -33.0], [134.0, -34.0],
        [136.0, -36.0], [138.0, -37.0], [140.0, -39.0], [144.0, -40.0],
        [147.0, -40.0], [150.0, -38.3], [151.8, -35.0], [153.8, -32.0],
        [154.5, -28.0], [154.0, -24.5], [151.0, -22.5], [149.5, -20.8],
        [147.0, -18.0], [146.3, -16.5], [145.8, -13.5], [143.8, -9.8],
        [141.8, -9.5], [140.8, -12.0], [140.2, -17.2], [138.8, -16.2],
        [136.8, -14.8], [136.8, -11.0], [134.0, -11.0], [132.0, -10.3],
        [129.8, -10.5], [128.8, -13.8], [126.8, -13.2], [124.8, -12.8],
        [121.8, -15.8], [118.8, -19.2], [115.5, -20.5], [113.0, -21.5]
      ]],
      [[
        [143.5, -39.3], [148.8, -39.3], [149.2, -43.9], [145.0, -44.2],
        [143.5, -42.0], [143.5, -39.3]
      ]]
    ]
  }
}
