<?xml version="1.0" encoding="UTF-8" standalone="no" ?><gpx xmlns="http://www.topografix.com/GPX/1/1"  xmlns:xsi="http://www.w3.org/2001/XMLSchema-instance"  xsi:schemaLocation="http://www.topografix.com/GPX/1/1 http://www.topografix.com/GPX/1/1/gpx.xsd"  creator="FireMapper Android - Fire Front Solutions"  version="1.1"><metadata><link href="http://www.firefrontsolutions.com"></link><name> 29 Mar 2024 Mt White HR Trail Inspection</name><time>2024-04-03T14:16:22+11:00</time><extensions>
<MapName>29 Mar 2024 Mt White HR Trail Inspection</MapName><MapCreated>1711666670182</MapCreated><Sharing>true</Sharing><MapUpdated>1711675101233</MapUpdated></extensions>
</metadata><wpt lat="-33.4274999" lon="151.1794388"><type>Threatened Asset</type><time>2024-03-29T10:57:52+11:00</time><hdop>9</hdop><extensions>
<Accuracy>9</Accuracy><UserProximity>8</UserProximity><Shared>true</Shared><Source>1</Source><Created>1711670272620</Created><DeviceName>Grant s S23 Ultra</DeviceName><DeviceType>SM-S918B</DeviceType><AppVersion>FireMapper Enterprise 1.199</AppVersion><OSVersion>Android 14 (34)</OSVersion><ResourceName>Grant RAFT</ResourceName><ResourceType>28</ResourceType><Type>13</Type><Rotation>-1</Rotation><DeviceID>553160154</DeviceID><Updated>1711670272902</Updated><FeatureID>371237</FeatureID><Version>1</Version></extensions>
</wpt>
<wpt lat="-33.4283696" lon="151.1757142"><type>Threatened Asset</type><time>2024-03-29T11:02:37+11:00</time><hdop>7</hdop><extensions>
<Accuracy>7</Accuracy><UserProximity>8</UserProximity><Shared>true</Shared><Source>1</Source><Created>1711670557116</Created><DeviceName>Grant s S23 Ultra</DeviceName><DeviceType>SM-S918B</DeviceType><AppVersion>FireMapper Enterprise 1.199</AppVersion><OSVersion>Android 14 (34)</OSVersion><ResourceName>Grant RAFT</ResourceName><ResourceType>28</ResourceType><Type>13</Type><Rotation>-1</Rotation><DeviceID>553160154</DeviceID><Updated>1711670557273</Updated><FeatureID>371238</FeatureID><Version>1</Version></extensions>
</wpt>
<wpt lat="-33.4282694" lon="151.1756542"><type>Threatened Asset</type><time>2024-03-29T11:05:28+11:00</time><hdop>7</hdop><extensions>
<Accuracy>7</Accuracy><UserProximity>8</UserProximity><Shared>true</Shared><Source>1</Source><Created>1711670728202</Created><DeviceName>Grant s S23 Ultra</DeviceName><DeviceType>SM-S918B</DeviceType><AppVersion>FireMapper Enterprise 1.199</AppVersion><OSVersion>Android 14 (34)</OSVersion><ResourceName>Grant RAFT</ResourceName><ResourceType>28</ResourceType><Type>13</Type><Rotation>-1</Rotation><DeviceID>553160154</DeviceID><Updated>1711670728363</Updated><FeatureID>371240</FeatureID><Version>1</Version></extensions>
</wpt>
<wpt lat="-33.4300057" lon="151.1706958"><type>Threatened Asset</type><time>2024-03-29T11:09:01+11:00</time><hdop>7</hdop><extensions>
<Accuracy>7</Accuracy><UserProximity>6</UserProximity><Shared>true</Shared><Source>1</Source><Created>1711670941442</Created><DeviceName>Grant s S23 Ultra</DeviceName><DeviceType>SM-S918B</DeviceType><AppVersion>FireMapper Enterprise 1.199</AppVersion><OSVersion>Android 14 (34)</OSVersion><ResourceName>Grant RAFT</ResourceName><ResourceType>28</ResourceType><Type>13</Type><Rotation>-1</Rotation><DeviceID>553160154</DeviceID><Updated>1711670941588</Updated><FeatureID>371243</FeatureID><Version>1</Version></extensions>
</wpt>
</gpx>
