<?xml version="1.0" encoding="UTF-8"?>
<gpx version="1.1" creator="Dingo test fixture" xmlns="http://www.topografix.com/GPX/1/1" xmlns:gpx_style="http://www.topografix.com/GPX/gpx_style/0/2">
	<wpt lat="-30.2949715" lon="152.9197955">
		<ele>539.036</ele>
		<name>Test Falls</name>
		<sym>Swimming Area</sym>
	</wpt>
	<wpt lat="-30.4528141" lon="152.8993464">
		<ele>17.785</ele>
		<name>Test Fuel</name>
		<sym>Gas Station</sym>
	</wpt>
	<wpt lat="-28.9100075" lon="152.1537566">
		<ele>1029.557</ele>
		<name>Test Camping Area</name>
		<desc><![CDATA[Free camping.<br />No water in dry season.<br /> <br />Contact NPWS office.]]></desc>
		<sym>Campground</sym>
	</wpt>
	<wpt lat="-29.9708104" lon="146.8798041">
		<ele>119.813</ele>
		<name>Test Locked Gate</name>
		<desc>Permit required, apply online in advance.</desc>
		<sym>Toll Booth</sym>
	</wpt>
	<wpt lat="-29.4324803" lon="147.9875565">
		<ele>155.929</ele>
		<name>Test Oddity</name>
		<sym>Covey</sym>
	</wpt>
	<wpt lat="-28.5988927" lon="148.2094502">
		<ele>176.069</ele>
		<name>Test Bare Point</name>
	</wpt>
	<trk>
		<name>Test Goaty G3 12Km</name>
		<desc><![CDATA[Bridge is closed at Test Ck, navigable on bikes with caution. (06/2023)<br />Ignore Road closed sign at your discretion.]]></desc>
		<trkseg>
			<trkpt lat="-30.2900000" lon="152.9100000"><ele>500.0</ele></trkpt>
			<trkpt lat="-30.2950000" lon="152.9150000"><ele>520.0</ele></trkpt>
			<trkpt lat="-30.3000000" lon="152.9200000"><ele>540.0</ele></trkpt>
			<trkpt lat="-30.3050000" lon="152.9250000"><ele>530.0</ele></trkpt>
		</trkseg>
	</trk>
	<trk>
		<name>Test Colored G4 8Km</name>
		<extensions>
			<gpx_style:line>
				<gpx_style:color>D85A30</gpx_style:color>
			</gpx_style:line>
		</extensions>
		<trkseg>
			<trkpt lat="-28.9100000" lon="152.1500000"><ele>1020.0</ele></trkpt>
			<trkpt lat="-28.9150000" lon="152.1550000"><ele>1035.0</ele></trkpt>
			<trkpt lat="-28.9200000" lon="152.1600000"><ele>1050.0</ele></trkpt>
		</trkseg>
	</trk>
	<trk>
		<name>Test Bare Track</name>
		<trkseg>
			<trkpt lat="-29.9700000" lon="146.8700000"><ele>120.0</ele></trkpt>
			<trkpt lat="-29.9750000" lon="146.8750000"><ele>122.0</ele></trkpt>
			<trkpt lat="-29.9800000" lon="146.8800000"><ele>125.0</ele></trkpt>
		</trkseg>
	</trk>
</gpx>
