<?xml version="1.0" encoding="UTF-8"?>
<gpx version="1.1" creator="Test">
  <trk>
    <name>Morning Trail Ride</name>
    <trkseg>
      <trkpt lat="-27.4698" lon="153.0251">
        <ele>10.5</ele>
        <time>2024-01-15T06:30:00Z</time>
      </trkpt>
      <trkpt lat="-27.4700" lon="153.0255">
        <ele>12.0</ele>
        <time>2024-01-15T06:30:10Z</time>
      </trkpt>
      <trkpt lat="-27.4705" lon="153.0260">
        <ele>15.0</ele>
        <time>2024-01-15T06:30:30Z</time>
      </trkpt>
    </trkseg>
  </trk>
</gpx>
